     2.100          NAVIGATION                              RINEX VERSION / TYPE
fic2rin                                 09/19/2011 00:12:48 PGM / RUN BY / DATE
                                                            END OF HEADER
15 11  9 19  0  0  0.0 -.105760060251D-03  .147792889038D-11  .000000000000D+00
     .860000000000D+02  .369687500000D+02  .480877173322D-08 -.859817631176D+00
     .197626650333D-05  .364590645768D-02  .433251261711D-05  .515368372536D+04
     .864000000000D+05  .260770320892D-07 -.923192791600D+00 -.745058059692D-07
     .948405053860D+00  .291781250000D+03 -.808409422983D-01 -.835856245339D-08
    -.132505519387D-09  .100000000000D+01  .165400000000D+04  .000000000000D+00
     .240000000000D+01  .000000000000D+00 -.102445483208D-07  .860000000000D+02
     .792060000000D+05  .400000000000D+01
16 11  9 19  0  0  0.0 -.198527239263D-03 -.216004991671D-11  .000000000000D+00
     .139000000000D+03 -.430000000000D+02  .393766401951D-08  .621958214073D+00
    -.211410224438D-05  .625990750268D-02  .891648232937D-05  .515388650131D+04
     .864000000000D+05  .134110450745D-06  .122735136201D+01  .614672899246D-07
     .977331717789D+00  .214687500000D+03 -.540203420498D-01 -.779318176016D-08
     .371086885830D-09  .100000000000D+01  .165400000000D+04  .000000000000D+00
     .240000000000D+01  .000000000000D+00 -.977888703346D-08  .139000000000D+03
     .792060000000D+05  .400000000000D+01
17 11  9 19  0  0  0.0  .174591783434D-03 -.147792889038D-11  .000000000000D+00
     .620000000000D+02 -.184375000000D+02  .480198573627D-08 -.233398810180D+00
    -.849366188049D-06  .658651324920D-02  .692717730999D-05  .515357524109D+04
     .864000000000D+05  .111758708954D-07  .226973864741D+01  .726431608200D-07
     .961677825787D+00  .249468750000D+03 -.240342271572D+01 -.816784022333D-08
     .241081470582D-09  .100000000000D+01  .165400000000D+04  .000000000000D+00
     .240000000000D+01  .000000000000D+00 -.107102096081D-07  .620000000000D+02
     .792060000000D+05  .400000000000D+01
18 11  9 19  0  0  0.0  .157987233251D-03  .181898940355D-11  .000000000000D+00
     .860000000000D+02  .681562500000D+02  .526343352885D-08  .123121054868D+01
     .363774597645D-05  .127681696322D-01  .851415097713D-05  .515363448906D+04
     .864000000000D+05 -.206753611565D-06 -.193719538911D+01  .124797224998D-06
     .931754423106D+00  .204781250000D+03 -.221594110193D+01 -.851821196058D-08
    -.201436962087D-09  .100000000000D+01  .165400000000D+04  .000000000000D+00
     .240000000000D+01  .000000000000D+00 -.107102096081D-07  .860000000000D+02
     .792060000000D+05  .400000000000D+01
20 11  9 19  0  0  0.0  .531417317688D-04  .568434188608D-12  .000000000000D+00
     .830000000000D+02  .770937500000D+02  .514450000336D-08  .164972934889D+01
     .383704900742D-05  .454935582820D-02  .911951065063D-05  .515359530830D+04
     .864000000000D+05 -.111758708954D-06 -.199108543928D+01 -.121071934700D-06
     .932043827801D+00  .186531250000D+03  .126903040864D+01 -.827105880851D-08
    -.132148361653D-09  .100000000000D+01  .165400000000D+04  .000000000000D+00
     .240000000000D+01  .000000000000D+00 -.745058059692D-08  .830000000000D+02
     .792060000000D+05  .400000000000D+01
21 11  9 19  0  0  0.0 -.172355677933D-03 -.250111042988D-11  .000000000000D+00
     .690000000000D+02 -.126875000000D+02  .526200489791D-08  .234102424769D+01
    -.819563865662D-06  .181173962774D-01  .867247581482D-05  .515371451950D+04
     .864000000000D+05 -.162050127983D-06 -.299023378751D+01 -.340864062309D-06
     .931990753133D+00  .199312500000D+03 -.233033086805D+01 -.807355058150D-08
    -.188222125921D-09  .100000000000D+01  .165400000000D+04  .000000000000D+00
     .240000000000D+01  .000000000000D+00 -.116415321827D-07  .690000000000D+02
     .792060000000D+05  .400000000000D+01
22 11  9 19  0  0  0.0  .144456978887D-03 -.113686837722D-12  .000000000000D+00
     .140000000000D+02  .720312500000D+02  .536629495630D-08  .385616869988D+00
     .387616455555D-05  .592042226344D-02  .794604420662D-05  .515370506668D+04
     .864000000000D+05 -.186264514923D-08 -.193329285325D+01  .167638063431D-07
     .929457101905D+00  .210812500000D+03 -.197362767420D+01 -.850999733269D-08
    -.155006456641D-09  .100000000000D+01  .165400000000D+04  .000000000000D+00
     .240000000000D+01  .000000000000D+00 -.167638063431D-07  .140000000000D+02
     .792060000000D+05  .400000000000D+01
23 11  9 19  0  0  0.0  .274879857898D-03 -.306954461848D-11  .000000000000D+00
     .630000000000D+02  .461562500000D+02  .454161774804D-08 -.142074977577D+01
     .227801501751D-05  .759024394210D-02  .387802720070D-05  .515373069382D+04
     .864000000000D+05 -.279396772385D-07 -.891173701716D+00 -.145286321640D-06
     .963000357859D+00  .306031250000D+03 -.305594784966D+01 -.823069998455D-08
    -.714315468392D-12  .100000000000D+01  .165400000000D+04  .000000000000D+00
     .240000000000D+01  .000000000000D+00 -.200234353542D-07  .630000000000D+02
     .792060000000D+05  .400000000000D+01
24 11  9 19  0  0  0.0  .425029546022D-03  .318323145621D-11  .000000000000D+00
     .430000000000D+02 -.118750000000D+01  .496199240119D-08 -.204321331686D+01
    -.186264514923D-06  .666851154529D-02  .912323594093D-05  .515341717529D+04
     .864000000000D+05 -.968575477600D-07 -.294362246283D+01 -.158324837685D-06
     .948557321688D+00  .199593750000D+03 -.189193109452D+00 -.809962309610D-08
    -.187864968187D-09  .100000000000D+01  .165400000000D+04  .000000000000D+00
     .240000000000D+01  .000000000000D+00 -.139698386192D-08  .430000000000D+02
     .792060000000D+05  .400000000000D+01
25 11  9 19  0  0  0.0  .193659216166D-04  .181898940355D-11  .000000000000D+00
     .108000000000D+03 -.286875000000D+02  .425339145654D-08  .148639551525D+01
    -.156089663506D-05  .104105588980D-02  .835396349430D-05  .515359620476D+04
     .864000000000D+05  .167638063431D-07  .117820932510D+01 -.223517417908D-07
     .965212682057D+00  .217593750000D+03  .996153200476D+00 -.792961601462D-08
     .300012496725D-09  .100000000000D+01  .165400000000D+04  .000000000000D+00
     .240000000000D+01  .000000000000D+00  .558793544769D-08  .108000000000D+03
     .792060000000D+05  .400000000000D+01
26 11  9 19  0  0  0.0 -.161732546985D-03 -.127329258248D-10  .000000000000D+00
     .230000000000D+02  .338437500000D+02  .392266339468D-08 -.161543859446D+01
     .197067856789D-05  .203662444837D-01  .405684113503D-05  .515365849495D+04
     .864000000000D+05  .445172190666D-06 -.823806667952D+00  .175088644028D-06
     .986042363594D+00  .312562500000D+03  .116114531173D+01 -.777818113532D-08
    -.127862468842D-09  .100000000000D+01  .165400000000D+04  .000000000000D+00
     .240000000000D+01  .000000000000D+00 -.605359673500D-08  .230000000000D+02
     .792060000000D+05  .400000000000D+01
27 11  9 19  0  0  0.0  .306627247483D-03  .386535248253D-11  .000000000000D+00
     .320000000000D+02 -.428750000000D+02  .391802034413D-08 -.657034832001D+00
    -.220537185669D-05  .216348341201D-01  .642240047455D-05  .515362708855D+04
     .864000000000D+05 -.352039933205D-06  .100529737913D+00  .428408384323D-07
     .981766830438D+00  .271843750000D+03 -.120373678038D+01 -.819855578847D-08
     .589310261424D-10  .100000000000D+01  .165400000000D+04  .000000000000D+00
     .240000000000D+01  .630000000000D+02 -.419095158577D-08  .320000000000D+02
     .792060000000D+05  .400000000000D+01
28 11  9 19  0  0  0.0  .686128623784D-04  .306954461848D-11  .000000000000D+00
     .140000000000D+02 -.339375000000D+02  .412052877942D-08  .439675192317D+00
    -.178813934326D-05  .171801330289D-01  .830367207527D-05  .515370452881D+04
     .864000000000D+05 -.286847352982D-06  .123441070392D+01  .316649675369D-07
     .975640269962D+00  .231500000000D+03 -.188041872360D+01 -.807569352791D-08
     .230366738556D-09  .100000000000D+01  .165400000000D+04  .000000000000D+00
     .240000000000D+01  .000000000000D+00 -.102445483208D-07  .140000000000D+02
     .792060000000D+05  .400000000000D+01
29 11  9 19  0  0  0.0  .240976456553D-03  .318323145621D-11  .000000000000D+00
     .400000000000D+02 -.107187500000D+02  .475269796895D-08  .253438833993D+01
    -.799074769020D-06  .222222099546D-02  .665336847305D-05  .515372014999D+04
     .864000000000D+05  .484287738800D-07  .227817654091D+01  .167638063431D-07
     .962155079404D+00  .254000000000D+03 -.116118000045D+01 -.804926385558D-08
     .216080429189D-09  .100000000000D+01  .165400000000D+04  .000000000000D+00
     .240000000000D+01  .000000000000D+00 -.931322574615D-08  .400000000000D+02
     .792060000000D+05  .400000000000D+01
30 11  9 19  0  0  0.0  .835573300719D-04 -.545696821064D-11  .000000000000D+00
     .360000000000D+02 -.348750000000D+02  .449304429619D-08  .576271754980D+00
    -.197440385818D-05  .117458536988D-01  .848621129990D-05  .515543588066D+04
     .864000000000D+05 -.119209289551D-06  .108950711894D+01 -.121071934700D-06
     .956533344162D+00  .214656250000D+03  .157642646504D+01 -.820677041636D-08
     .208222959036D-09  .100000000000D+01  .165400000000D+04  .000000000000D+00
     .240000000000D+01  .000000000000D+00 -.419095158577D-08  .360000000000D+02
     .792060000000D+05  .400000000000D+01
31 11  9 19  0  0  0.0  .143338460475D-03  .545696821064D-11  .000000000000D+00
     .360000000000D+02 -.624375000000D+02  .391194866265D-08 -.304107158639D+01
    -.314600765705D-05  .766657886561D-02  .601075589657D-05  .515373912621D+04
     .864000000000D+05  .279396772385D-07  .156087271856D+00  .633299350739D-07
     .980488844222D+00  .275312500000D+03 -.953340161187D+00 -.777710966212D-08
    -.177864551630D-09  .100000000000D+01  .165400000000D+04  .000000000000D+00
     .240000000000D+01  .000000000000D+00 -.130385160446D-07  .360000000000D+02
     .792060000000D+05  .400000000000D+01
